OBJECT_NAME,OBJECT_ID,EPOCH,MEAN_MOTION,ECCENTRICITY,INCLINATION,RA_OF_ASC_NODE,ARG_OF_PERICENTER,MEAN_ANOMALY,EPHEMERIS_TYPE,CLASSIFICATION_TYPE,NORAD_CAT_ID,ELEMENT_SET_NO,REV_AT_EPOCH,BSTAR,MEAN_MOTION_DOT,MEAN_MOTION_DDOT
OSCAR 7 (AO-7),1974-089B,2026-07-07T12:21:17.710848,12.53698425,.00126647,101.9901,201.9731,92.5590,74.3678,0,U,7530,999,36306,.4948808E-5,-.46E-6,0
PHASE 3B (AO-10),1983-058B,2026-07-06T07:21:12.524544,2.05868973,.6004451,25.9287,216.4111,120.9204,311.3694,0,U,14129,999,29588,0,.24E-5,0
UOSAT 2 (UO-11),1984-021B,2026-07-07T08:34:14.860416,14.90835514,.0009095,97.8070,153.7082,112.8579,247.3601,0,U,14781,999,26013,.11036764E-3,.1031E-4,0
LUSAT (LO-19),1990-005G,2026-07-07T11:37:51.416832,14.34129180,.00122332,98.8845,210.8490,142.4411,217.7630,0,U,20442,999,90530,.44156222E-4,.77E-6,0
EYESAT A (AO-27),1993-061C,2026-07-07T03:18:34.842528,14.30947627,.00091598,98.6871,255.5434,47.8200,312.3759,0,U,22825,999,70985,.44303703E-4,.72E-6,0
ITAMSAT (IO-26),1993-061D,2026-07-06T16:36:24.055776,14.31375033,.00094374,98.6820,255.0170,33.2338,326.9435,0,U,22826,999,71010,.50470935E-4,.89E-6,0
RADIO ROSTO (RS15),1994-085A,2026-07-07T10:13:07.639968,11.27583445,.01566349,64.8166,270.4858,0.1409,359.9534,0,U,23439,999,29818,.16096174E-3,-.37E-6,0
JAS-2 (FO-29),1996-046B,2026-07-06T19:54:29.022048,13.53275038,.03506757,98.5225,34.0093,45.6079,317.3214,0,U,24278,999,47582,.15884665E-4,-.18E-6,0
TECHSAT 1B (GO-32),1998-043D,2026-07-06T22:38:06.695520,14.24432204,.00019427,99.0077,181.2008,128.2186,231.9167,0,U,25397,999,45414,.37960253E-4,.41E-6,0
ISS (ZARYA),1998-067A,2026-07-07T12:12:01.987776,15.48933372,.00066874,51.6304,199.5144,267.6545,92.3678,0,U,25544,999,57490,.11369272E-3,.5806E-4,0
PCSAT (NO-44),2001-043C,2026-07-06T17:11:00.627936,14.31962724,.00059887,67.0487,193.7609,265.9645,94.0772,0,U,26931,999,29324,.7059757E-4,.106E-5,0
SAUDISAT 1C (SO-50),2002-058C,2026-07-07T02:45:35.668224,14.83088031,.00747517,64.5520,67.3282,258.7570,100.5128,0,U,27607,999,26741,.10581655E-3,.749E-5,0
CUTE-1 (CO-55),2003-031E,2026-07-07T11:30:08.421696,14.24348198,.00106334,98.6738,196.7829,122.6531,237.5676,0,U,27844,999,19456,.12007954E-3,.234E-5,0
CUBESAT XI-IV (CO-57),2003-031J,2026-07-07T11:28:11.924256,14.23631593,.00102102,98.6771,196.4779,139.6848,220.5090,0,U,27848,999,19426,.1045566E-3,.195E-5,0
MOZHAETS 4 (RS22),2003-042A,2026-07-07T15:46:19.736832,14.73506719,.00106507,98.3479,13.5949,197.7120,250.3663,0,U,27939,999,21856,.15633813E-3,.963E-5,0
CUBESAT XI-V,2005-043F,2026-07-06T21:40:08.857056,14.72686848,.00149336,98.3006,343.9413,139.5987,220.6332,0,U,28895,999,10465,.21205115E-3,.1301E-4,0
CUTE-1.7+APD II (CO-65),2008-021C,2026-07-07T12:46:42.043584,15.09654331,.00075492,97.8288,170.3776,330.9800,29.1008,0,U,32785,999,98826,.1921212E-3,.3026E-4,0
SEEDS II (CO-66),2008-021J,2026-07-06T23:27:44.284896,15.33467667,.00020947,97.7526,186.8299,175.3299,184.7963,0,U,32791,999,99032,.41927709E-3,.13488E-3,0
YUBILEINY (RS30),2008-025A,2026-07-07T14:53:19.924800,12.43179957,.00185039,82.5058,342.7282,266.6150,93.2813,0,U,32953,999,82223,-.46539482E-3,-.55E-6,0
KKS-1 (KISEKI),2009-002H,2026-07-07T11:54:24.969312,14.83176447,.00068274,98.1180,111.2602,216.2577,143.8174,0,U,33499,999,93920,.14778602E-3,.1151E-4,0
SWISSCUBE,2009-051B,2026-07-07T05:09:11.569536,14.62520493,.00074143,98.4018,96.4508,140.7711,219.4029,0,U,35932,999,89208,.17976403E-3,.862E-5,0
BEESAT-1,2009-051C,2026-07-06T16:29:16.621152,14.61752776,.00055939,98.3946,95.5083,152.8547,207.2947,0,U,35933,999,89203,.17520542E-3,.825E-5,0
ITUPSAT1,2009-051E,2026-07-06T23:15:23.766912,14.60470414,.00074912,98.4029,94.9654,167.2440,192.8951,0,U,35935,999,89162,.14805972E-3,.669E-5,0
XIWANG-1 (HOPE-1),2009-072B,2026-07-07T14:40:46.205760,13.16440672,.00073163,100.4036,142.1183,181.9320,178.1766,0,U,36122,999,79569,.8963763E-3,.298E-5,0
O/OREOS (USA 219),2010-062C,2026-07-07T00:26:49.011648,14.93830285,.00134716,71.9708,35.4141,21.2567,338.9160,0,U,37224,999,11960,.17289473E-3,.1776E-4,0
JUGNU,2011-058B,2026-07-07T01:17:32.697888,14.13781645,.00183556,19.9587,187.7288,296.0601,101.0732,0,U,37839,999,76184,.6294923E-4,.388E-5,0
SRMSAT,2011-058D,2026-07-07T12:20:05.633376,14.11579854,.00118785,19.9725,296.4406,67.5382,21.1361,0,U,37841,999,76069,.53719828E-4,.364E-5,0
STRAND-1,2013-009E,2026-07-07T10:55:21.902304,14.37175624,.0008963,98.3931,8.1913,162.7350,197.4144,0,U,39090,999,69997,.93038286E-4,.234E-5,0
ZACUBE-1 (TSHEPISOSAT),2013-066B,2026-07-07T11:16:39.129312,15.01305441,.00435096,97.8022,150.9081,179.9834,180.1399,0,U,39417,999,68377,.14443632E-3,.1831E-4,0
GOMX-1,2013-066Q,2026-07-07T14:43:13.190304,14.69530704,.01289525,97.6475,27.7867,12.5472,347.8894,0,U,39430,999,67291,.22574745E-3,.147E-4,0
